[Satellite]
VERSION=1.1
NAME=ARABSAT-5A
NICKNAME=ARABSAT-5A
TLE1=1 36745U 10032B   17186.08657035  .00000148  00000-0  00000-0 0  9991
TLE2=2 36745   0.0491  10.9978 0003028  97.5617 236.3486  1.00270410 25861
